NORAD_CAT_ID,OBJECT_NAME,OBJECT_TYPE,EPOCH,MEAN_MOTION,ECCENTRICITY,INCLINATION,RA_OF_ASC_NODE,ARG_OF_PERICENTER,MEAN_ANOMALY,BSTAR,MEAN_MOTION_DOT,MEAN_MOTION_DDOT,TLE_LINE0,TLE_LINE1,TLE_LINE2,SEMIMAJOR_AXIS,PERIOD,APOGEE,PERIGEE,DECAYED
55397.0,STARLINK-5224,PAYLOAD,2023-05-24 09:29:23,15.69930584,0.0003335,69.9974,132.7966,273.3048,86.7766,-4.9464e-06,-8.08e-06,0.0,0 STARLINK-5224,1 55397U 23014G   23144.39541242 -.00000808  00000-0 -49464-5 0  9993,2 55397  69.9974 132.7966 0003335 273.3048  86.7766 15.69930584 17895,6737.233,91.724,361.344,356.851,0.0
55397.0,STARLINK-5224,PAYLOAD,2023-05-25 22:11:26,15.69925631,0.0003216,69.9975,128.4976,260.5894,99.4938,8.6308e-06,8.25e-06,0.0,0 STARLINK-5224,1 55397U 23014G   23145.92461245  .00000825  00000-0  86308-5 0  9992,2 55397  69.9975 128.4976 0003216 260.5894  99.4938 15.69925631 19075,6737.247,91.724,361.278,356.945,0.0
55397.0,STARLINK-5224,PAYLOAD,2023-05-26 01:14:56,15.69926243,0.0003196,69.9977,128.1391,259.8903,100.1933,9.456e-06,9.24e-06,0.0,0 STARLINK-5224,1 55397U 23014G   23146.05204517  .00000924  00000-0  94560-5 0  9993,2 55397  69.9977 128.1391 0003196 259.8903 100.1933 15.69926243 18157,6737.245,91.724,361.263,356.957,0.0
55397.0,STARLINK-5224,PAYLOAD,2023-05-26 08:53:42,15.69918096,0.0003546,69.9971,127.2435,271.881,88.1979,4.2519e-06,2.98e-06,0.0,0 STARLINK-5224,1 55397U 23014G   23146.37063548  .00000298  00000-0  42519-5 0  9996,2 55397  69.9971 127.2435 0003546 271.8810  88.1979 15.69918096 19142,6737.268,91.725,361.522,356.744,0.0
55397.0,STARLINK-5224,PAYLOAD,2023-05-27 01:43:00,15.69897374,0.000296,69.9981,125.273,247.6543,112.4339,-2.3553e-05,-3.04e-05,0.0,0 STARLINK-5224,1 55397U 23014G   23147.07153738 -.00003040  00000-0 -23553-4 0  9991,2 55397  69.9981 125.2730 0002960 247.6543 112.4339 15.69897374 18316,6737.328,91.726,361.187,357.198,0.0
55397.0,STARLINK-5224,PAYLOAD,2023-05-27 07:50:00,15.69914648,0.0002951,69.9981,124.5564,259.7986,100.2877,-4.2372e-06,-7.22e-06,0.0,0 STARLINK-5224,1 55397U 23014G   23147.32639055 -.00000722  00000-0 -42372-5 0  9995,2 55397  69.9981 124.5564 0002951 259.7986 100.2877 15.69914648 18358,6737.278,91.725,361.131,357.155,0.0
55397.0,STARLINK-5224,PAYLOAD,2023-05-27 21:35:45,15.69925733,0.0003132,69.9975,122.943,258.4394,101.645,1.088e-06,-8.2e-07,0.0,0 STARLINK-5224,1 55397U 23014G   23147.89983253 -.00000082  00000-0  10880-5 0  9996,2 55397  69.9975 122.9430 0003132 258.4394 101.6450 15.69925733 19389,6737.246,91.724,361.222,357.001,0.0
55397.0,STARLINK-5224,PAYLOAD,2023-05-28 00:39:15,15.69924928,0.0003104,69.9974,122.5843,256.1638,103.9212,1.5718e-07,-1.94e-06,0.0,0 STARLINK-5224,1 55397U 23014G   23148.02726632 -.00000194  00000-0  15718-6 0  9998,2 55397  69.9974 122.5843 0003104 256.1638 103.9212 15.69924928 18461,6737.249,91.724,361.205,357.023,0.0
55397.0,STARLINK-5224,PAYLOAD,2023-05-28 08:18:02,15.69912819,0.0002665,69.9993,121.6916,265.9695,94.1196,-6.5009e-06,-9.93e-06,0.0,0 STARLINK-5224,1 55397U 23014G   23148.34586088 -.00000993  00000-0 -65009-5 0  9997,2 55397  69.9993 121.6916 0002665 265.9695  94.1196 15.69912819 18519,6737.283,91.725,360.944,357.353,0.0
55397.0,STARLINK-5224,PAYLOAD,2023-05-28 15:56:47,15.69917886,0.0002982,69.9975,120.7942,263.0641,97.0216,1.6586e-05,1.782e-05,0.0,0 STARLINK-5224,1 55397U 23014G   23148.66443561  .00001782  00000-0  16586-4 0  9990,2 55397  69.9975 120.7942 0002982 263.0641  97.0216 15.69917886 18569,6737.269,91.725,361.143,357.125,0.0
55397.0,STARLINK-5224,PAYLOAD,2023-05-29 07:14:20,15.69903475,0.0002489,69.9991,119.0049,262.7297,97.3616,-2.6046e-05,-3.34e-05,0.0,0 STARLINK-5224,1 55397U 23014G   23149.30162135 -.00003340  00000-0 -26046-4 0  9993,2 55397  69.9991 119.0049 0002489 262.7297  97.3616 15.69903475 18668,6737.31,91.725,360.852,357.498,0.0
55397.0,STARLINK-5224,PAYLOAD,2023-05-29 21:00:04,15.69920418,0.0003142,69.9976,117.3888,252.444,107.6413,1.3612e-06,-4.9e-07,0.0,0 STARLINK-5224,1 55397U 23014G   23149.87505456 -.00000049  00000-0  13612-5 0  9990,2 55397  69.9976 117.3888 0003142 252.4440 107.6413 15.69920418 19696,6737.262,91.724,361.244,357.01,0.0
55397.0,STARLINK-5224,PAYLOAD,2023-05-30 01:35:19,15.69924225,0.0002856,70.0011,116.8565,254.9438,105.1442,1.4008e-05,1.472e-05,0.0,0 STARLINK-5224,1 55397U 23014G   23150.06619979  .00001472  00000-0  14008-4 0  9998,2 55397  70.0011 116.8565 0002856 254.9438 105.1442 15.69924225 18784,6737.251,91.724,361.04,357.192,0.0
55397.0,STARLINK-5224,PAYLOAD,2023-05-30 07:42:19,15.69932035,0.0003343,69.9988,116.1364,264.9572,95.1242,8.3809e-06,7.95e-06,0.0,0 STARLINK-5224,1 55397U 23014G   23150.32106236  .00000795  00000-0  83809-5 0  9997,2 55397  69.9988 116.1364 0003343 264.9572  95.1242 15.69932035 19769,6737.228,91.724,361.346,356.841,0.0
55397.0,STARLINK-5224,PAYLOAD,2023-05-30 15:21:05,15.69923695,0.0003098,69.9967,115.2406,268.7534,91.3307,5.4747e-06,4.46e-06,0.0,0 STARLINK-5224,1 55397U 23014G   23150.63965214  .00000446  00000-0  54747-5 0  9992,2 55397  69.9967 115.2406 0003098 268.7534  91.3307 15.69923695 19818,6737.252,91.724,361.205,357.03,0.0
55397.0,STARLINK-5224,PAYLOAD,2023-05-31 00:31:37,15.69909952,0.00037,69.9977,114.1669,276.6003,83.4771,-4.8508e-06,-7.96e-06,0.0,0 STARLINK-5224,1 55397U 23014G   23151.02196246 -.00000796  00000-0 -48508-5 0  9995,2 55397  69.9977 114.1669 0003700 276.6003  83.4771 15.69909952 18936,6737.292,91.725,361.649,356.664,0.0
55397.0,STARLINK-5224,PAYLOAD,2023-05-31 06:38:37,15.69911364,0.0002903,69.9989,113.4497,260.5262,99.5606,9.4418e-06,9.22e-06,0.0,0 STARLINK-5224,1 55397U 23014G   23151.27682691  .00000922  00000-0  94418-5 0  9996,2 55397  69.9989 113.4497 0002903 260.5262  99.5606 15.69911364 19917,6737.288,91.725,361.108,357.197,0.0
55397.0,STARLINK-5224,PAYLOAD,2023-05-31 21:56:08,15.69931305,0.0003368,69.9983,111.6577,267.8006,92.2805,-2.9284e-06,-5.65e-06,0.0,0 STARLINK-5224,1 55397U 23014G   23151.91398544 -.00000565  00000-0 -29284-5 0  9992,2 55397  69.9983 111.6577 0003368 267.8006  92.2805 15.69931305 20013,6737.231,91.724,361.365,356.826,0.0
55397.0,STARLINK-5224,PAYLOAD,2023-06-01 00:59:38,15.6993056,0.0003072,69.9985,111.3001,258.0003,102.0848,-3.2798e-06,-6.07e-06,0.0,0 STARLINK-5224,1 55397U 23014G   23152.04141862 -.00000607  00000-0 -32798-5 0  9997,2 55397  69.9985 111.3001 0003072 258.0003 102.0848 15.69930560 19090,6737.233,91.724,361.167,357.028,0.0
55397.0,STARLINK-5224,PAYLOAD,2023-06-01 07:06:40,15.6990885,0.0002584,69.9995,110.5845,261.2151,98.8752,-2.2046e-05,-2.86e-05,0.0,0 STARLINK-5224,1 55397U 23014G   23152.29630299 -.00002860  00000-0 -22046-4 0  9998,2 55397  69.9995 110.5845 0002584 261.2151  98.8752 15.69908850 20078,6737.295,91.725,360.901,357.419,0.0
55397.0,STARLINK-5224,PAYLOAD,2023-06-01 23:55:55,15.69917863,0.0003381,69.9997,108.6176,266.3315,93.7494,1.1549e-05,1.176e-05,0.0,0 STARLINK-5224,1 55397U 23014G   23152.99717370  .00001176  00000-0  11549-4 0  9994,2 55397  69.9997 108.6176 0003381 266.3315  93.7494 15.69917863 19247,6737.269,91.725,361.412,356.856,0.0
55397.0,STARLINK-5224,PAYLOAD,2023-06-02 07:34:41,15.69914204,0.0002513,69.9986,107.7201,263.7326,96.3584,1.8118e-05,1.966e-05,0.0,0 STARLINK-5224,1 55397U 23014G   23153.31576028  .00001966  00000-0  18118-4 0  9990,2 55397  69.9986 107.7201 0002513 263.7326  96.3584 15.69914204 20239,6737.279,91.725,360.838,357.451,0.0
55397.0,STARLINK-5224,PAYLOAD,2023-06-02 21:20:27,15.69922852,0.0002877,69.9985,106.1076,261.0304,99.0566,2.5734e-06,9.7e-07,0.0,0 STARLINK-5224,1 55397U 23014G   23153.88920913  .00000097  00000-0  25734-5 0  9995,2 55397  69.9985 106.1076 0002877 261.0304  99.0566 15.69922852 20329,6737.255,91.724,361.058,357.181,0.0
55397.0,STARLINK-5224,PAYLOAD,2023-06-03 03:27:27,15.69923366,0.0002634,69.9993,105.392,242.1524,117.9405,1.146e-05,1.166e-05,0.0,0 STARLINK-5224,1 55397U 23014G   23154.14407324  .00001166  00000-0  11460-4 0  9999,2 55397  69.9993 105.3920 0002634 242.1524 117.9405 15.69923366 19424,6737.253,91.724,360.893,357.344,0.0
55397.0,STARLINK-5224,PAYLOAD,2023-06-03 06:30:58,15.69922966,0.000278,69.9982,105.0314,252.8601,107.229,1.5258e-05,1.622e-05,0.0,0 STARLINK-5224,1 55397U 23014G   23154.27150682  .00001622  00000-0  15258-4 0  9991,2 55397  69.9982 105.0314 0002780 252.8601 107.2290 15.69922966 20388,6737.254,91.724,360.992,357.246,0.0
55397.0,STARLINK-5224,PAYLOAD,2023-06-03 21:48:29,15.69926718,0.0003225,69.9981,103.2394,260.2325,99.8507,9.3612e-06,9.13e-06,0.0,0 STARLINK-5224,1 55397U 23014G   23154.90867205  .00000913  00000-0  93612-5 0  9990,2 55397  69.9981 103.2394 0003225 260.2325  99.8507 15.69926718 20483,6737.244,91.724,361.281,356.936,0.0
55397.0,STARLINK-5224,PAYLOAD,2023-06-04 05:27:15,15.69924176,0.0003171,69.9987,102.3437,259.7754,100.3085,8.9354e-06,8.62e-06,0.0,0 STARLINK-5224,1 55397U 23014G   23155.22725779  .00000862  00000-0  89354-5 0  9996,2 55397  69.9987 102.3437 0003171 259.7754 100.3085 15.69924176 19591,6737.251,91.724,361.252,356.98,0.0
55397.0,STARLINK-5224,PAYLOAD,2023-06-04 22:16:31,15.69924452,0.0002891,69.9988,100.3727,254.1632,105.9246,4.4378e-06,3.21e-06,0.0,0 STARLINK-5224,1 55397U 23014G   23155.92814182  .00000321  00000-0  44378-5 0  9997,2 55397  69.9988 100.3727 0002891 254.1632 105.9246 15.69924452 20649,6737.25,91.724,361.063,357.167,0.0
55397.0,STARLINK-5224,PAYLOAD,2023-06-05 05:55:18,15.69906411,0.0002911,69.9984,99.4775,259.0042,101.0826,-1.7813e-05,-2.352e-05,0.0,0 STARLINK-5224,1 55397U 23014G   23156.24674081 -.00002352  00000-0 -17813-4 0  9996,2 55397  69.9984  99.4775 0002911 259.0042 101.0826 15.69906411 19754,6737.302,91.725,361.128,357.206,0.0
55397.0,STARLINK-5224,PAYLOAD,2023-06-05 13:34:03,15.6991722,0.0003225,69.998,98.5803,263.129,96.9539,-3.2779e-06,-6.07e-06,0.0,0 STARLINK-5224,1 55397U 23014G   23156.56531563 -.00000607  00000-0 -32779-5 0  9998,2 55397  69.9980  98.5803 0003225 263.1290  96.9539 15.69917220 20746,6737.271,91.725,361.309,356.963,0.0
